[
  {
    "OBJECT_NAME": "TRANSPORTER-16 OBJECT G",
    "OBJECT_ID": "2026-067G",
    "EPOCH": "2026-04-20T20:31:01.295904",
    "MEAN_MOTION": 15.18358301,
    "ECCENTRICITY": 0.00028747,
    "INCLINATION": 97.4446,
    "RA_OF_ASC_NODE": 70.1737,
    "ARG_OF_PERICENTER": 87.2901,
    "MEAN_ANOMALY": 272.8662,
    "EPHEMERIS_TYPE": 0,
    "CLASSIFICATION_TYPE": "U",
    "NORAD_CAT_ID": 68422,
    "ELEMENT_SET_NO": 999,
    "REV_AT_EPOCH": 324,
    "BSTAR": 0.00029244651,
    "MEAN_MOTION_DOT": 5.941e-05,
    "MEAN_MOTION_DDOT": 0
  },
  {
    "OBJECT_NAME": "TRANSPORTER-16 OBJECT H",
    "OBJECT_ID": "2026-067H",
    "EPOCH": "2026-04-20T20:32:08.028672",
    "MEAN_MOTION": 15.18297453,
    "ECCENTRICITY": 0.00026332,
    "INCLINATION": 97.4469,
    "RA_OF_ASC_NODE": 70.1783,
    "ARG_OF_PERICENTER": 97.3922,
    "MEAN_ANOMALY": 262.7611,
    "EPHEMERIS_TYPE": 0,
    "CLASSIFICATION_TYPE": "U",
    "NORAD_CAT_ID": 68423,
    "ELEMENT_SET_NO": 999,
    "REV_AT_EPOCH": 324,
    "BSTAR": 0.00021190435,
    "MEAN_MOTION_DOT": 4.278e-05,
    "MEAN_MOTION_DDOT": 0
  },
  {
    "OBJECT_NAME": "SPACEVAN-002",
    "OBJECT_ID": "2026-067J",
    "EPOCH": "2026-04-20T20:42:45.626112",
    "MEAN_MOTION": 15.1778476,
    "ECCENTRICITY": 8.145e-05,
    "INCLINATION": 97.4488,
    "RA_OF_ASC_NODE": 70.1731,
    "ARG_OF_PERICENTER": 166.9751,
    "MEAN_ANOMALY": 193.1504,
    "EPHEMERIS_TYPE": 0,
    "CLASSIFICATION_TYPE": "U",
    "NORAD_CAT_ID": 68424,
    "ELEMENT_SET_NO": 999,
    "REV_AT_EPOCH": 324,
    "BSTAR": 0.00024608242,
    "MEAN_MOTION_DOT": 4.906e-05,
    "MEAN_MOTION_DDOT": 0
  },
  {
    "OBJECT_NAME": "ERMIS-3",
    "OBJECT_ID": "2026-067K",
    "EPOCH": "2026-04-20T20:33:51.150528",
    "MEAN_MOTION": 15.182125,
    "ECCENTRICITY": 0.0002648,
    "INCLINATION": 97.4554,
    "RA_OF_ASC_NODE": 70.1989,
    "ARG_OF_PERICENTER": 125.96,
    "MEAN_ANOMALY": 234.188,
    "EPHEMERIS_TYPE": 0,
    "CLASSIFICATION_TYPE": "U",
    "NORAD_CAT_ID": 68425,
    "ELEMENT_SET_NO": 999,
    "REV_AT_EPOCH": 324,
    "BSTAR": 0.0002012792,
    "MEAN_MOTION_DOT": 4.05e-05,
    "MEAN_MOTION_DDOT": 0
  },
  {
    "OBJECT_NAME": "TRANSPORTER-16 OBJECT L",
    "OBJECT_ID": "2026-067L",
    "EPOCH": "2026-04-20T20:30:49.891104",
    "MEAN_MOTION": 15.18477518,
    "ECCENTRICITY": 0.00028577,
    "INCLINATION": 97.4513,
    "RA_OF_ASC_NODE": 70.1917,
    "ARG_OF_PERICENTER": 129.6223,
    "MEAN_ANOMALY": 230.5264,
    "EPHEMERIS_TYPE": 0,
    "CLASSIFICATION_TYPE": "U",
    "NORAD_CAT_ID": 68426,
    "ELEMENT_SET_NO": 999,
    "REV_AT_EPOCH": 324,
    "BSTAR": 0.00044953101,
    "MEAN_MOTION_DOT": 9.204e-05,
    "MEAN_MOTION_DDOT": 0
  },
  {
    "OBJECT_NAME": "TRANSPORTER-16 OBJECT M",
    "OBJECT_ID": "2026-067M",
    "EPOCH": "2026-04-20T18:57:12.831840",
    "MEAN_MOTION": 15.18369954,
    "ECCENTRICITY": 0.00027107,
    "INCLINATION": 97.4515,
    "RA_OF_ASC_NODE": 70.1258,
    "ARG_OF_PERICENTER": 129.2818,
    "MEAN_ANOMALY": 230.8657,
    "EPHEMERIS_TYPE": 0,
    "CLASSIFICATION_TYPE": "U",
    "NORAD_CAT_ID": 68427,
    "ELEMENT_SET_NO": 999,
    "REV_AT_EPOCH": 323,
    "BSTAR": 0.00035386664,
    "MEAN_MOTION_DOT": 7.207e-05,
    "MEAN_MOTION_DDOT": 0
  },
  {
    "OBJECT_NAME": "OUT OF THE BOX (OOTB)",
    "OBJECT_ID": "2026-067N",
    "EPOCH": "2026-04-20T20:36:35.306208",
    "MEAN_MOTION": 15.18061758,
    "ECCENTRICITY": 0.00021773,
    "INCLINATION": 97.4536,
    "RA_OF_ASC_NODE": 70.1924,
    "ARG_OF_PERICENTER": 138.4094,
    "MEAN_ANOMALY": 221.7306,
    "EPHEMERIS_TYPE": 0,
    "CLASSIFICATION_TYPE": "U",
    "NORAD_CAT_ID": 68428,
    "ELEMENT_SET_NO": 999,
    "REV_AT_EPOCH": 324,
    "BSTAR": 0.00016519103,
    "MEAN_MOTION_DOT": 3.297e-05,
    "MEAN_MOTION_DDOT": 0
  },
  {
    "OBJECT_NAME": "TRANSPORTER-16 OBJECT P",
    "OBJECT_ID": "2026-067P",
    "EPOCH": "2026-04-20T20:37:38.154432",
    "MEAN_MOTION": 15.18151628,
    "ECCENTRICITY": 0.00018429,
    "INCLINATION": 97.4482,
    "RA_OF_ASC_NODE": 70.1746,
    "ARG_OF_PERICENTER": 172.4965,
    "MEAN_ANOMALY": 187.6297,
    "EPHEMERIS_TYPE": 0,
    "CLASSIFICATION_TYPE": "U",
    "NORAD_CAT_ID": 68429,
    "ELEMENT_SET_NO": 999,
    "REV_AT_EPOCH": 324,
    "BSTAR": 0.00049644767,
    "MEAN_MOTION_DOT": 0.00010077,
    "MEAN_MOTION_DDOT": 0
  },
  {
    "OBJECT_NAME": "TRANSPORTER-16 OBJECT Q",
    "OBJECT_ID": "2026-067Q",
    "EPOCH": "2026-04-20T20:33:32.151168",
    "MEAN_MOTION": 15.18273973,
    "ECCENTRICITY": 0.0002161,
    "INCLINATION": 97.4469,
    "RA_OF_ASC_NODE": 70.1772,
    "ARG_OF_PERICENTER": 104.5895,
    "MEAN_ANOMALY": 255.5579,
    "EPHEMERIS_TYPE": 0,
    "CLASSIFICATION_TYPE": "U",
    "NORAD_CAT_ID": 68430,
    "ELEMENT_SET_NO": 999,
    "REV_AT_EPOCH": 324,
    "BSTAR": 0.00027353193,
    "MEAN_MOTION_DOT": 5.539e-05,
    "MEAN_MOTION_DDOT": 0
  },
  {
    "OBJECT_NAME": "DISCO-2",
    "OBJECT_ID": "2026-067R",
    "EPOCH": "2026-04-20T20:34:57.789984",
    "MEAN_MOTION": 15.18209162,
    "ECCENTRICITY": 0.00027067,
    "INCLINATION": 97.4569,
    "RA_OF_ASC_NODE": 70.2023,
    "ARG_OF_PERICENTER": 145.0119,
    "MEAN_ANOMALY": 215.1293,
    "EPHEMERIS_TYPE": 0,
    "CLASSIFICATION_TYPE": "U",
    "NORAD_CAT_ID": 68431,
    "ELEMENT_SET_NO": 999,
    "REV_AT_EPOCH": 324,
    "BSTAR": 0.00024177417,
    "MEAN_MOTION_DOT": 4.878e-05,
    "MEAN_MOTION_DDOT": 0
  },
  {
    "OBJECT_NAME": "TRANSPORTER-16 OBJECT S",
    "OBJECT_ID": "2026-067S",
    "EPOCH": "2026-04-20T20:39:27.305280",
    "MEAN_MOTION": 15.1794857,
    "ECCENTRICITY": 0.00017627,
    "INCLINATION": 97.4523,
    "RA_OF_ASC_NODE": 70.1875,
    "ARG_OF_PERICENTER": 168.2524,
    "MEAN_ANOMALY": 191.8751,
    "EPHEMERIS_TYPE": 0,
    "CLASSIFICATION_TYPE": "U",
    "NORAD_CAT_ID": 68432,
    "ELEMENT_SET_NO": 999,
    "REV_AT_EPOCH": 324,
    "BSTAR": 0.00022784227,
    "MEAN_MOTION_DOT": 4.559e-05,
    "MEAN_MOTION_DDOT": 0
  },
  {
    "OBJECT_NAME": "T.MICROSAT-2",
    "OBJECT_ID": "2026-067T",
    "EPOCH": "2026-04-20T19:26:36.712032",
    "MEAN_MOTION": 15.16840127,
    "ECCENTRICITY": 0.00038223,
    "INCLINATION": 97.4538,
    "RA_OF_ASC_NODE": 70.1051,
    "ARG_OF_PERICENTER": 257.7956,
    "MEAN_ANOMALY": 102.2849,
    "EPHEMERIS_TYPE": 0,
    "CLASSIFICATION_TYPE": "U",
    "NORAD_CAT_ID": 68433,
    "ELEMENT_SET_NO": 999,
    "REV_AT_EPOCH": 323,
    "BSTAR": 0.0002085255,
    "MEAN_MOTION_DOT": 4.035e-05,
    "MEAN_MOTION_DDOT": 0
  },
  {
    "OBJECT_NAME": "TRANSPORTER-16 OBJECT U",
    "OBJECT_ID": "2026-067U",
    "EPOCH": "2026-04-20T20:33:57.496608",
    "MEAN_MOTION": 15.18190151,
    "ECCENTRICITY": 0.0002682,
    "INCLINATION": 97.4546,
    "RA_OF_ASC_NODE": 70.197,
    "ARG_OF_PERICENTER": 128.2951,
    "MEAN_ANOMALY": 231.8524,
    "EPHEMERIS_TYPE": 0,
    "CLASSIFICATION_TYPE": "U",
    "NORAD_CAT_ID": 68434,
    "ELEMENT_SET_NO": 999,
    "REV_AT_EPOCH": 324,
    "BSTAR": 0.00016543157,
    "MEAN_MOTION_DOT": 3.314e-05,
    "MEAN_MOTION_DDOT": 0
  },
  {
    "OBJECT_NAME": "ION SCV-019 (ASTOUNDING ALEXANDRA)",
    "OBJECT_ID": "2026-067V",
    "EPOCH": "2026-04-20T20:44:49.891776",
    "MEAN_MOTION": 15.17634746,
    "ECCENTRICITY": 0.00010859,
    "INCLINATION": 97.4514,
    "RA_OF_ASC_NODE": 70.1798,
    "ARG_OF_PERICENTER": 204.4326,
    "MEAN_ANOMALY": 155.6856,
    "EPHEMERIS_TYPE": 0,
    "CLASSIFICATION_TYPE": "U",
    "NORAD_CAT_ID": 68435,
    "ELEMENT_SET_NO": 999,
    "REV_AT_EPOCH": 324,
    "BSTAR": 0.00012424903,
    "MEAN_MOTION_DOT": 2.433e-05,
    "MEAN_MOTION_DDOT": 0
  }
]